OBJECT_NAME,OBJECT_ID,EPOCH,MEAN_MOTION,ECCENTRICITY,INCLINATION,RA_OF_ASC_NODE,ARG_OF_PERICENTER,MEAN_ANOMALY,EPHEMERIS_TYPE,CLASSIFICATION_TYPE,NORAD_CAT_ID,ELEMENT_SET_NO,REV_AT_EPOCH,BSTAR,MEAN_MOTION_DOT,MEAN_MOTION_DDOT
IRIDIUM 156,2018-061H,2026-07-19T11:45:38.270592,14.34218799,.00021374,86.3936,43.2157,93.4361,266.7080,0,U,43576,999,41800,.32265026E-4,.11E-5,0
IRIDIUM 164,2018-061J,2026-07-19T19:40:34.519008,14.34217317,.000223,86.3934,43.1187,88.7101,271.4350,0,U,43577,999,41809,-.35581E-4,-.8E-6,0
IRIDIUM 159,2018-061K,2026-07-19T20:35:22.431264,14.34217690,.000213,86.3937,43.0389,87.4727,272.6713,0,U,43578,999,41806,.26379E-5,.27E-6,0
IRIDIUM 180,2019-002A,2026-07-19T18:54:10.963296,14.34217228,.0002051,86.3992,339.9704,91.5273,268.6158,0,U,43922,999,39366,-.37211E-4,-.84E-6,0
IRIDIUM 176,2019-002B,2026-07-19T20:26:15.896832,14.72252556,.0002343,86.6118,339.8822,91.5856,268.5630,0,U,43923,999,40405,.59737E-4,.401E-5,0
IRIDIUM 168,2019-002C,2026-07-19T20:25:31.046592,14.34217827,.0002198,86.3999,340.0216,91.0961,269.0487,0,U,43924,999,39365,.40989E-4,.135E-5,0
IRIDIUM 173,2019-002D,2026-07-19T18:26:46.937184,14.34218148,.0002145,86.3997,339.9438,92.9487,267.1954,0,U,43925,999,39362,.2E-4,.76E-6,0
IRIDIUM 169,2019-002E,2026-07-19T10:57:23.552640,14.38604488,.00020293,86.4225,11.6981,104.0859,256.0565,0,U,43926,999,39486,.15781766E-4,.68E-6,0
IRIDIUM 172,2019-002F,2026-07-19T19:58:06.938400,14.34218319,.0002202,86.3997,339.9253,92.0600,268.0848,0,U,43927,999,39364,.28841E-4,.101E-5,0
IRIDIUM 175,2019-002G,2026-07-19T17:09:37.609632,14.43628626,.0005487,86.4507,276.9249,106.6973,253.4831,0,U,43928,999,40367,.41453E-4,.161E-5,0
IRIDIUM 171,2019-002H,2026-07-19T19:30:43.015104,14.34217178,.0002261,86.4007,340.2430,95.8951,264.2503,0,U,43929,999,39363,.49807E-5,.34E-6,0
IRIDIUM 170,2019-002J,2026-07-19T18:57:16.397568,14.72252914,.0002212,86.6116,339.9101,89.1943,270.9528,0,U,43930,999,40405,.54519E-4,.368E-5,0
IRIDIUM 167,2019-002K,2026-07-19T19:21:34.981632,14.34217658,.0002374,86.3997,339.9585,97.7412,262.4054,0,U,43931,999,39363,.26606E-5,.27E-6,0
IRIDIUM 181,2023-068S,2026-07-19T19:55:05.914848,14.43308472,.0002372,86.4474,43.1388,84.0163,276.1308,0,U,56726,999,16714,.34696E-4,.137E-5,0
IRIDIUM 177,2023-068T,2026-07-19T18:35:22.048800,14.80028360,.0002226,86.1988,313.3209,97.5153,262.6321,0,U,56727,999,17118,.64403E-4,.514E-5,0
IRIDIUM 174,2023-068U,2026-07-19T20:17:11.925888,14.72258210,.0001937,86.6124,340.0376,92.0422,268.1017,0,U,56728,999,17082,.66177E-4,.442E-5,0
IRIDIUM 178,2023-068V,2026-07-19T16:42:11.126304,14.80021192,.0002227,86.6544,11.7730,91.9405,268.2071,0,U,56729,999,17117,.10125E-4,.103E-5,0
IRIDIUM 179,2023-068W,2026-07-19T11:42:24.389856,14.80023825,.00023747,86.6770,20.9343,93.8326,266.3167,0,U,56730,999,17114,.13902863E-4,.131E-5,0
