IRIDIUM 156             
1 43576U 18061H   26200.49002628  .00000110  00000+0  32265-4 0  9995
2 43576  86.3936  43.2157 0002137  93.4361 266.7080 14.34218799418003
IRIDIUM 164             
1 43577U 18061J   26200.81984397 -.00000080  00000+0 -35581-4 0  9996
2 43577  86.3934  43.1187 0002230  88.7101 271.4350 14.34217317418094
IRIDIUM 159             
1 43578U 18061K   26200.85789851  .00000027  00000+0  26379-5 0  9994
2 43578  86.3937  43.0389 0002130  87.4727 272.6713 14.34217690418067
IRIDIUM 180             
1 43922U 19002A   26200.78762689 -.00000084  00000+0 -37211-4 0  9996
2 43922  86.3992 339.9704 0002051  91.5273 268.6158 14.34217228393666
IRIDIUM 176             
1 43923U 19002B   26200.85157288  .00000401  00000+0  59737-4 0  9996
2 43923  86.6118 339.8822 0002343  91.5856 268.5630 14.72252556404056
IRIDIUM 168             
1 43924U 19002C   26200.85105378  .00000135  00000+0  40989-4 0  9993
2 43924  86.3999 340.0216 0002198  91.0961 269.0487 14.34217827393651
IRIDIUM 173             
1 43925U 19002D   26200.76859881  .00000076  00000+0  20000-4 0  9995
2 43925  86.3997 339.9438 0002145  92.9487 267.1954 14.34218148393620
IRIDIUM 169             
1 43926U 19002E   26200.45652260  .00000068  00000+0  15782-4 0  9996
2 43926  86.4225  11.6981 0002029 104.0859 256.0565 14.38604488394864
IRIDIUM 172             
1 43927U 19002F   26200.83202475  .00000101  00000+0  28841-4 0  9996
2 43927  86.3997 339.9253 0002202  92.0600 268.0848 14.34218319393643
IRIDIUM 175             
1 43928U 19002G   26200.71501863  .00000161  00000+0  41453-4 0  9997
2 43928  86.4507 276.9249 0005487 106.6973 253.4831 14.43628626403671
IRIDIUM 171             
1 43929U 19002H   26200.81299786  .00000034  00000+0  49807-5 0  9998
2 43929  86.4007 340.2430 0002261  95.8951 264.2503 14.34217178393632
IRIDIUM 170             
1 43930U 19002J   26200.78977312  .00000368  00000+0  54519-4 0  9999
2 43930  86.6116 339.9101 0002212  89.1943 270.9528 14.72252914404059
IRIDIUM 167             
1 43931U 19002K   26200.80665488  .00000027  00000+0  26606-5 0  9990
2 43931  86.3997 339.9585 0002374  97.7412 262.4054 14.34217658393630
IRIDIUM 181             
1 56726U 23068S   26200.82992957  .00000137  00000+0  34696-4 0  9998
2 56726  86.4474  43.1388 0002372  84.0163 276.1308 14.43308472167146
IRIDIUM 177             
1 56727U 23068T   26200.77456075  .00000514  00000+0  64403-4 0  9997
2 56727  86.1988 313.3209 0002226  97.5153 262.6321 14.80028360171184
IRIDIUM 174             
1 56728U 23068U   26200.84527692  .00000442  00000+0  66177-4 0  9990
2 56728  86.6124 340.0376 0001937  92.0422 268.1017 14.72258210170824
IRIDIUM 178             
1 56729U 23068V   26200.69596211  .00000103  00000+0  10125-4 0  9993
2 56729  86.6544  11.7730 0002227  91.9405 268.2071 14.80021192171175
IRIDIUM 179             
1 56730U 23068W   26200.48778229  .00000131  00000+0  13903-4 0  9991
2 56730  86.6770  20.9343 0002374  93.8326 266.3167 14.80023825171143
